[
    {
        "Altitude(m)": 714137.3369923114,
        "Argument of Periapsis(deg)": 0.006834072711976239,
        "Eccentricity": 0.0,
        "Inclination(deg)": 45.0,
        "Latitude(deg)": -36.07317009129139,
        "Longitude(deg)": 50.982621222781994,
        "Mean Anomaly(deg)": -123.98917001151153,
        "RAAN(deg)": 284.99354883512507,
        "Satellite Name": "Constellation 1 1268",
        "Satellite Number": 1268,
        "Semi-Major Axis(m)": 7083131.272910544,
        "Time(s)": 114
    },
    {
        "Altitude(m)": 714149.4257913571,
        "Argument of Periapsis(deg)": 0.006894020718221645,
        "Eccentricity": 0.0,
        "Inclination(deg)": 45.0,
        "Latitude(deg)": -36.10276992219076,
        "Longitude(deg)": 51.04384119444373,
        "Mean Anomaly(deg)": -123.92846887126153,
        "RAAN(deg)": 284.99349224595943,
        "Satellite Name": "Constellation 1 1268",
        "Satellite Number": 1268,
        "Semi-Major Axis(m)": 7083131.272910544,
        "Time(s)": 115
    },
    {
        "Altitude(m)": 714161.5018294192,
        "Argument of Periapsis(deg)": 0.006953968724467052,
        "Eccentricity": 0.0,
        "Inclination(deg)": 45.0,
        "Latitude(deg)": -36.13233391989111,
        "Longitude(deg)": 51.10511001660313,
        "Mean Anomaly(deg)": -123.8677677310117,
        "RAAN(deg)": 284.9934356567939,
        "Satellite Name": "Constellation 1 1268",
        "Satellite Number": 1268,
        "Semi-Major Axis(m)": 7083131.272910544,
        "Time(s)": 116
    },
    {
        "Altitude(m)": 714173.5650629551,
        "Argument of Periapsis(deg)": 0.007013916730712457,
        "Eccentricity": 0.0,
        "Inclination(deg)": 45.0,
        "Latitude(deg)": -36.161862019854944,
        "Longitude(deg)": 51.16642771977104,
        "Mean Anomaly(deg)": -123.80706659076183,
        "RAAN(deg)": 284.9933790676283,
        "Satellite Name": "Constellation 1 1268",
        "Satellite Number": 1268,
        "Semi-Major Axis(m)": 7083131.272910544,
        "Time(s)": 117
    },
    {
        "Altitude(m)": 714185.6154484741,
        "Argument of Periapsis(deg)": 0.007073864736957864,
        "Eccentricity": 0.0,
        "Inclination(deg)": 45.0,
        "Latitude(deg)": -36.19135415748974,
        "Longitude(deg)": 51.227794334211595,
        "Mean Anomaly(deg)": -123.7463654505119,
        "RAAN(deg)": 284.9933224784628,
        "Satellite Name": "Constellation 1 1268",
        "Satellite Number": 1268,
        "Semi-Major Axis(m)": 7083131.272910544,
        "Time(s)": 118
    },
    {
        "Altitude(m)": 714197.6529425257,
        "Argument of Periapsis(deg)": 0.0071338127432032696,
        "Eccentricity": 0.0,
        "Inclination(deg)": 45.0,
        "Latitude(deg)": -36.220810268148576,
        "Longitude(deg)": 51.28920972184355,
        "Mean Anomaly(deg)": -123.68566431026193,
        "RAAN(deg)": 284.9932658892972,
        "Satellite Name": "Constellation 1 1268",
        "Satellite Number": 1268,
        "Semi-Major Axis(m)": 7083131.272910544,
        "Time(s)": 119
    },
    {
        "Altitude(m)": 714209.6775016948,
        "Argument of Periapsis(deg)": 0.007193760749448674,
        "Eccentricity": 0.0,
        "Inclination(deg)": 45.0,
        "Latitude(deg)": -36.25023028712942,
        "Longitude(deg)": 51.35067424862676,
        "Mean Anomaly(deg)": -123.62496317001212,
        "RAAN(deg)": 284.9932093001316,
        "Satellite Name": "Constellation 1 1268",
        "Satellite Number": 1268,
        "Semi-Major Axis(m)": 7083131.272910544,
        "Time(s)": 120
    },
    {
        "Altitude(m)": 714221.6890826203,
        "Argument of Periapsis(deg)": 0.007253708755694079,
        "Eccentricity": 0.0,
        "Inclination(deg)": 45.0,
        "Latitude(deg)": -36.279614149677016,
        "Longitude(deg)": 51.41218777598029,
        "Mean Anomaly(deg)": -123.56426202976219,
        "RAAN(deg)": 284.99315271096606,
        "Satellite Name": "Constellation 1 1268",
        "Satellite Number": 1268,
        "Semi-Major Axis(m)": 7083131.272910544,
        "Time(s)": 121
    },
    {
        "Altitude(m)": 714233.6876419686,
        "Argument of Periapsis(deg)": 0.0073136567619394854,
        "Eccentricity": 0.0,
        "Inclination(deg)": 45.0,
        "Latitude(deg)": -36.30896179098183,
        "Longitude(deg)": 51.47375033316707,
        "Mean Anomaly(deg)": -123.50356088951222,
        "RAAN(deg)": 284.9930961218005,
        "Satellite Name": "Constellation 1 1268",
        "Satellite Number": 1268,
        "Semi-Major Axis(m)": 7083131.272910544,
        "Time(s)": 122
    },
    {
        "Altitude(m)": 714245.673136459,
        "Argument of Periapsis(deg)": 0.0073736047681848904,
        "Eccentricity": 0.0,
        "Inclination(deg)": 45.0,
        "Latitude(deg)": -36.338273146180725,
        "Longitude(deg)": 51.535361949196826,
        "Mean Anomaly(deg)": -123.44285974926238,
        "RAAN(deg)": 284.99303953263495,
        "Satellite Name": "Constellation 1 1268",
        "Satellite Number": 1268,
        "Semi-Major Axis(m)": 7083131.272910544,
        "Time(s)": 123
    },
    {
        "Altitude(m)": 714257.645522854,
        "Argument of Periapsis(deg)": 0.007433552774430298,
        "Eccentricity": 0.0,
        "Inclination(deg)": 45.0,
        "Latitude(deg)": -36.36754815035737,
        "Longitude(deg)": 51.597022652824734,
        "Mean Anomaly(deg)": -123.38215860901254,
        "RAAN(deg)": 284.99298294346937,
        "Satellite Name": "Constellation 1 1268",
        "Satellite Number": 1268,
        "Semi-Major Axis(m)": 7083131.272910544,
        "Time(s)": 124
    },
    {
        "Altitude(m)": 714269.6047579522,
        "Argument of Periapsis(deg)": 0.007493500780675703,
        "Eccentricity": 0.0,
        "Inclination(deg)": 45.0,
        "Latitude(deg)": -36.39678673854235,
        "Longitude(deg)": 51.65873247254958,
        "Mean Anomaly(deg)": -123.3214574687626,
        "RAAN(deg)": 284.9929263543038,
        "Satellite Name": "Constellation 1 1268",
        "Satellite Number": 1268,
        "Semi-Major Axis(m)": 7083131.272910544,
        "Time(s)": 125
    },
    {
        "Altitude(m)": 714281.5507985983,
        "Argument of Periapsis(deg)": 0.007553448786921108,
        "Eccentricity": 0.0,
        "Inclination(deg)": 45.0,
        "Latitude(deg)": -36.42598884571353,
        "Longitude(deg)": 51.720491268515694,
        "Mean Anomaly(deg)": -123.26075632851268,
        "RAAN(deg)": 284.9928697651382,
        "Satellite Name": "Constellation 1 1268",
        "Satellite Number": 1268,
        "Semi-Major Axis(m)": 7083131.272910544,
        "Time(s)": 126
    },
    {
        "Altitude(m)": 714293.483601682,
        "Argument of Periapsis(deg)": 0.007613396793166514,
        "Eccentricity": 0.0,
        "Inclination(deg)": 45.0,
        "Latitude(deg)": -36.455154406795735,
        "Longitude(deg)": 51.78229940489924,
        "Mean Anomaly(deg)": -123.20005518826284,
        "RAAN(deg)": 284.99281317597263,
        "Satellite Name": "Constellation 1 1268",
        "Satellite Number": 1268,
        "Semi-Major Axis(m)": 7083131.272910544,
        "Time(s)": 127
    },
    {
        "Altitude(m)": 714305.4031241313,
        "Argument of Periapsis(deg)": 0.007673344799411918,
        "Eccentricity": 0.0,
        "Inclination(deg)": 45.0,
        "Latitude(deg)": -36.48428335666213,
        "Longitude(deg)": 51.84415674132575,
        "Mean Anomaly(deg)": -123.13935404801288,
        "RAAN(deg)": 284.9927565868071,
        "Satellite Name": "Constellation 1 1268",
        "Satellite Number": 1268,
        "Semi-Major Axis(m)": 7083131.272910544,
        "Time(s)": 128
    },
    {
        "Altitude(m)": 714317.3093229237,
        "Argument of Periapsis(deg)": 0.007733292805657325,
        "Eccentricity": 0.0,
        "Inclination(deg)": 45.0,
        "Latitude(deg)": -36.51337563013368,
        "Longitude(deg)": 51.90606330525587,
        "Mean Anomaly(deg)": -123.07865290776303,
        "RAAN(deg)": 284.9926999976415,
        "Satellite Name": "Constellation 1 1268",
        "Satellite Number": 1268,
        "Semi-Major Axis(m)": 7083131.272910544,
        "Time(s)": 129
    },
    {
        "Altitude(m)": 714329.2021550771,
        "Argument of Periapsis(deg)": 0.00779324081190273,
        "Eccentricity": 0.0,
        "Inclination(deg)": 45.0,
        "Latitude(deg)": -36.54243116197977,
        "Longitude(deg)": 51.96801912388775,
        "Mean Anomaly(deg)": -123.01795176751308,
        "RAAN(deg)": 284.99264340847594,
        "Satellite Name": "Constellation 1 1268",
        "Satellite Number": 1268,
        "Semi-Major Axis(m)": 7083131.272910544,
        "Time(s)": 130
    },
    {
        "Altitude(m)": 714341.0815776526,
        "Argument of Periapsis(deg)": 0.007853188818148135,
        "Eccentricity": 0.0,
        "Inclination(deg)": 45.0,
        "Latitude(deg)": -36.57144988691817,
        "Longitude(deg)": 52.03002422415464,
        "Mean Anomaly(deg)": -122.95725062726316,
        "RAAN(deg)": 284.99258681931036,
        "Satellite Name": "Constellation 1 1268",
        "Satellite Number": 1268,
        "Semi-Major Axis(m)": 7083131.272910544,
        "Time(s)": 131
    },
    {
        "Altitude(m)": 714352.9475477611,
        "Argument of Periapsis(deg)": 0.007913136824393542,
        "Eccentricity": 0.0,
        "Inclination(deg)": 45.0,
        "Latitude(deg)": -36.60043173961559,
        "Longitude(deg)": 52.09207863272473,
        "Mean Anomaly(deg)": -122.89654948701333,
        "RAAN(deg)": 284.9925302301448,
        "Satellite Name": "Constellation 1 1268",
        "Satellite Number": 1268,
        "Semi-Major Axis(m)": 7083131.272910544,
        "Time(s)": 132
    }
]